satname,norad_id,inclination_deg,eccentricity,mean_motion_rev_per_day,perigee_km,apogee_km,l1,l2
STARLINK-1284,45390,53.0549,0.0001054,15.06396576,546.4921191809244,547.9519848690925,1 45390U 20019AG  25362.56263272 -.00000762  00000+0 -32306-4 0  9998,2 45390  53.0549 105.9254 0001054  75.5647 284.5458 15.06396576319286
STARLINK-1297,45395,53.0561,0.000138,15.06399448,546.2575514048267,548.1689480737541,1 45395U 20019AM  25362.59949468  .00000910  00000+0  79988-4 0  9994,2 45395  53.0561 105.7547 0001380  98.7324 261.3821 15.06399448318477
STARLINK-1307,45397,53.0539,0.0001355,15.06395101,546.2881859442823,548.1649594724868,1 45397U 20019AP  25362.45942879 -.00000378  00000+0 -64705-5 0  9992,2 45397  53.0539 106.3831 0001355  89.2312 270.8832 15.06395101319099
STARLINK-1255,45399,53.0479,0.0001595,15.40114255,444.683391079534,446.8602179881809,1 45399U 20019AR  25362.49262570  .00057329  00000+0  14092-2 0  9998,2 45399  53.0479  82.1341 0001595  78.1448 281.9735 15.40114255319423
STARLINK-1260,45404,53.0577,0.0001404,15.06421933,546.1720277680597,548.1166467675648,1 45404U 20019AW  25362.65936404  .00001356  00000+0  10986-3 0  9995,2 45404  53.0577  95.4837 0001404  90.0869 270.0281 15.06421933319156
STARLINK-1263,45405,53.0544,0.000125,15.06440071,546.2230955982732,547.954402035477,1 45405U 20019AX  25362.64463904  .00014239  00000+0  97181-3 0  9991,2 45405  53.0544  95.5540 0001250  92.7995 267.3137 15.06440071319154
STARLINK-1265,45406,53.0564,0.0001279,15.06414377,546.2817484094994,548.0532412992834,1 45406U 20019AY  25362.51930670  .00002974  00000+0  21840-3 0  9999,2 45406  53.0564  96.1153 0001279  91.2932 268.8204 15.06414377319139
STARLINK-1278,45408,53.05,0.0004424,15.42282561,436.3583833174316,442.39051744872995,1 45408U 20019BA  25362.72997007  .00106981  00000+0  24230-2 0  9999,2 45408  53.0500 110.2350 0004424 208.8519 151.2242 15.42282561318965
STARLINK-1296,45412,53.0555,0.0001106,15.06418813,546.3879622294407,547.9198365763878,1 45412U 20019BE  25362.65567860  .00003360  00000+0  24424-3 0  9999,2 45412  53.0555  95.5011 0001106  90.2100 269.9016 15.06418813319151
STARLINK-1298,45413,53.0428,0.0004237,15.65482043,368.9927958794988,374.7127372076675,1 45413U 20019BF  25362.91668980  .00145572  00000+0  14070-2 0  9991,2 45413  53.0428  48.8639 0004237  72.1982 164.7242 15.65482043  5946
STARLINK-1309,45414,53.058,0.0001767,15.06408611,545.9614621623687,548.4088710160413,1 45414U 20019BG  25362.67043086  .00002458  00000+0  18379-3 0  9991,2 45414  53.0580  95.4334 0001767  82.6455 277.4735 15.06408611319145
STARLINK-1316,45415,53.056,0.0001264,15.06411029,546.3023960628379,548.0531156331172,1 45415U 20019BH  25362.49719265  .00001816  00000+0  14073-3 0  9995,2 45415  53.0560  96.2139 0001264  94.5888 265.5246 15.06411029319153
STARLINK-1318,45416,53.0457,0.0003675,15.72618749,348.94274593908085,353.8889672886917,1 45416U 20019BJ  25362.91668980  .00165500  00000+0  11892-2 0  9996,2 45416  53.0457  37.3770 0003675  31.1402 337.8739 15.72618749  6001
STARLINK-1286,45417,53.0512,0.0002161,15.43559069,434.14280415068333,437.0877078757321,1 45417U 20019BK  25362.63210669  .00060286  00000+0  13204-2 0  9997,2 45417  53.0512 110.4443 0002161 252.2921 107.7848 15.43559069319228
STARLINK-1308,45419,53.0567,0.0001372,15.06396592,546.2718437319181,548.1721622423374,1 45419U 20019BM  25362.66399588  .00000577  00000+0  57643-4 0  9994,2 45419  53.0567 125.4639 0001372  95.2652 264.8494 15.06396592318761
STARLINK-1329,45531,53.0545,0.0001683,15.42601208,437.28835062441794,439.5828089547749,1 45531U 20025A   25362.47618859  .00091450  00000+0  20552-2 0  9997,2 45531  53.0545  62.5480 0001683  45.1555 314.9587 15.42601208314419
STARLINK-1338,45532,53.0561,0.0001673,15.32168519,468.1981368482657,470.4893038973014,1 45532U 20025B   25362.91668980  .01632886  00000+0  47035-1 0  9996,2 45532  53.0561  62.9855 0001673  88.6924 284.9957 15.32168519  5831
STARLINK-1350,45535,53.0744,0.000174,15.34035456,462.5964615921657,464.9774511289788,1 45535U 20025E   25362.30503039  .00016571  00000+0  50624-3 0  9991,2 45535  53.0744   7.8792 0001740  85.3577 274.7623 15.34035456315193
STARLINK-1362,45538,53.056,0.0001177,15.06411732,546.3604919881864,547.9907105745287,1 45538U 20025H   25362.47687092  .00005109  00000+0  36149-3 0  9995,2 45538  53.0560  66.0259 0001177  81.2746 278.8376 15.06411732314366
STARLINK-1368,45540,53.0561,0.0001592,15.06386773,546.1495751406137,548.3546190291254,1 45540U 20025K   25362.54789247  .00004153  00000+0  29762-3 0  9992,2 45540  53.0561  65.9865 0001592  92.9759 267.1412 15.06386773314363
STARLINK-1371,45542,53.0539,0.0001252,15.16512631,515.5269644208938,517.2533540215636,1 45542U 20025M   25362.91668980  .01940591  00000+0  88837-1 0  9997,2 45542  53.0539  64.1126 0001252 109.6705   2.8297 15.16512631  5694
STARLINK-1372,45543,53.0546,0.0001424,15.06425729,546.1465449755187,548.118861787043,1 45543U 20025N   25362.55525597  .00013617  00000+0  93064-3 0  9993,2 45543  53.0546  65.9533 0001424  88.2215 271.8937 15.06425729313469
STARLINK-1373,45544,53.0539,0.0001706,15.12387047,527.7443363176835,530.1010250807376,1 45544U 20025P   25362.91668980  .01958126  00000+0  10213+0 0  9993,2 45544  53.0539  64.2573 0001706  78.4555  19.6878 15.12387047  5781
STARLINK-1294,45551,53.0432,0.0002605,15.71546735,352.7219920634807,356.2296833519258,1 45551U 20025W   25362.91668980  .00111708  00000+0  84690-3 0  9991,2 45551  53.0432 332.8291 0002605 115.8119 264.1311 15.71546735  5913
STARLINK-1325,45554,53.0476,0.0010139,15.8408799,312.1038473092731,325.6840867041692,1 45554U 20025Z   25362.91668980  .00271920  00000+0  11480-2 0  9993,2 45554  53.0476 322.7016 0010139  83.1255 198.8209 15.84087990  5989
STARLINK-1327,45555,53.0539,0.0001435,15.20671014,502.8278137996522,504.80293413098116,1 45555U 20025AA  25362.91668980  .01998713  00000+0  80972-1 0  9992,2 45555  53.0539  43.9304 0001435  82.6529 335.4087 15.20671014  5832
STARLINK-1356,45564,53.0553,0.0001215,15.06401339,546.3660247479957,548.048883450343,1 45564U 20025AK  25362.81512418  .00003819  00000+0  27515-3 0  9994,2 45564  53.0553  44.7862 0001215  85.5704 274.5424 15.06401339314688
STARLINK-1357,45565,53.0592,9.37e-05,15.41958422,439.6909441797534,440.9687248645432,1 45565U 20025AL  25362.78204373  .00110183  00000+0  25219-2 0  9990,2 45565  53.0592  17.4272 0000937  13.4862 346.6167 15.41958422315077
STARLINK-1361,45567,53.0595,0.0001523,15.06392841,546.1787654020391,548.2882332561358,1 45567U 20025AN  25362.83355125  .00001611  00000+0  12704-3 0  9991,2 45567  53.0595  44.7068 0001523  94.5771 265.5392 15.06392841314693
STARLINK-1363,45568,53.0502,0.0008015,15.52799332,403.11771809244965,413.9967889808677,1 45568U 20025AP  25362.91668980  .00041798  00000+0  66668-3 0  9995,2 45568  53.0502  25.2487 0008015 338.9857 162.4511 15.52799332  5955
STARLINK-1366,45569,53.0501,0.0008226,15.49874858,411.5020688115128,422.68157927282664,1 45569U 20025AQ  25362.91668980  .00171378  00000+0  29595-2 0  9991,2 45569  53.0501  25.6980 0008226 353.0194 222.2617 15.49874858  5947
STARLINK-1376,45570,53.0554,0.0001262,15.0640314,546.327956533728,548.0759120807461,1 45570U 20025AR  25362.49812335  .00000697  00000+0  65648-4 0  9997,2 45570  53.0554  46.2115 0001262  84.5064 275.6069 15.06403140314638
STARLINK-1320,45572,53.0552,0.0004939,15.52461283,406.18998632104103,412.8948560532899,1 45572U 20025AT  25362.21739266  .00169673  00000+0  26749-2 0  9997,2 45572  53.0552 334.2578 0004939 101.6727 258.4836 15.52461283315648
STARLINK-1321,45573,53.0565,0.0001327,15.22212892,498.2547316537084,500.0799682281822,1 45573U 20025AU  25362.91668980  .01039789  00000+0  41482-1 0  9994,2 45573  53.0565  33.8050 0001327  81.3916  16.6617 15.22212892  5680
STARLINK-1328,45576,53.0435,0.0001235,15.97654288,280.10633571465496,281.7511249500476,1 45576U 20025AX  25362.91668980  .00496626  11463-3  10864-2 0  9993,2 45576  53.0435 339.3079 0001235 107.2776 171.1555 15.97654288  5953
STARLINK-1331,45578,53.0544,0.0001282,15.06396038,546.3358696824016,548.1115321661182,1 45578U 20025AZ  25362.39584789  .00001462  00000+0  11701-3 0  9994,2 45578  53.0544  36.6656 0001282  81.9115 278.2019 15.06396038314774
STARLINK-1333,45580,53.0552,0.0001339,15.06411118,546.2501834698542,548.1047826884223,1 45580U 20025BB  25362.40228223  .00002613  00000+0  19418-3 0  9999,2 45580  53.0552  46.6380 0001339  94.8961 265.2181 15.06411118314623
STARLINK-1335,45581,53.0549,0.0001256,15.06399495,546.3432817177018,548.0829296642514,1 45581U 20025BC  25362.80497771  .00002197  00000+0  16634-3 0  9994,2 45581  53.0549  34.8332 0001256  90.1744 269.9389 15.06399495314828
STARLINK-1337,45582,53.0551,0.0001483,15.06401078,546.1812253243361,548.2352827266795,1 45582U 20025BD  25362.82709451  .00001535  00000+0  12194-3 0  9990,2 45582  53.0551  34.7348 0001483  90.2966 269.8192 15.06401078314829
STARLINK-1347,45586,53.054,0.000125,15.40637639,443.37344693403065,445.07903774461465,1 45586U 20025BH  25362.75447604  .00112926  00000+0  26993-2 0  9993,2 45586  53.0540   8.4267 0001250  49.1433 310.9679 15.40637639315183
STARLINK-1360,45588,53.0369,0.0004771,16.02086883,265.46917673799,271.81153168938,1 45588U 20025BK  25362.46397884  .00828932  34335-3  14064-2 0  9996,2 45588  53.0369 267.6401 0004771 134.9588 225.1829 16.02086883316574
STARLINK-1364,45589,53.054,0.0001292,15.06395518,546.3305378483392,548.1200514652792,1 45589U 20025BL  25362.30001091  .00001567  00000+0  12406-3 0  9996,2 45589  53.0540  37.1022 0001292  81.0027 279.1108 15.06395518314747
STARLINK-1365,45590,53.0558,9.57e-05,15.06393541,546.5685961622739,547.8941116652131,1 45590U 20025BM  25362.44836615 -.00001081  00000+0 -53703-4 0  9990,2 45590  53.0558  66.4322 0000957  78.7288 281.3809 15.06393541314360
